OBJECT_NAME,OBJECT_ID,EPOCH,MEAN_MOTION,ECCENTRICITY,INCLINATION,RA_OF_ASC_NODE,ARG_OF_PERICENTER,MEAN_ANOMALY,EPHEMERIS_TYPE,CLASSIFICATION_TYPE,NORAD_CAT_ID,ELEMENT_SET_NO,REV_AT_EPOCH,BSTAR,MEAN_MOTION_DOT,MEAN_MOTION_DDOT
STARLINK-31857,2024-097J,2026-05-26T04:34:03.493344,15.27585076,.00014795,43.0006,196.3179,276.9428,83.1255,0,U,59843,999,11377,-.75384844E-4,-.2336E-4,0
STARLINK-31851,2024-097K,2026-05-26T04:54:24.816960,15.27577297,.00016291,43.0025,196.4332,268.7091,91.3575,0,U,59844,999,11377,.38694723E-4,.803E-5,0
STARLINK-31903,2024-097L,2026-05-25T14:57:39.144672,15.27577941,.00012394,42.9999,192.8794,273.6137,86.4573,0,U,59845,999,11376,-.20243799E-4,-.819E-5,0
STARLINK-31922,2024-097M,2026-05-26T04:39:36.517824,15.27583048,.00014033,43.0028,196.3488,275.7741,84.2951,0,U,59846,999,11377,.14375787E-4,.133E-5,0
STARLINK-31889,2024-097N,2026-05-26T02:50:51.751392,15.27577503,.00012078,43.0017,197.5050,272.3286,87.7427,0,U,59847,999,11375,.20192669E-4,.294E-5,0
STARLINK-31859,2024-097P,2026-05-26T03:40:09.270048,15.27572046,.00013083,42.9994,189.9732,284.3383,75.7323,0,U,59848,999,11384,.85228654E-4,.2083E-4,0
STARLINK-31895,2024-097Q,2026-05-26T04:59:58.034976,15.27584174,.00014276,43.0014,196.4592,265.7329,94.3360,0,U,59849,999,11377,-.16779892E-4,-.724E-5,0
STARLINK-31899,2024-097R,2026-05-26T05:05:31.169184,15.27576631,.0001465,43.0007,196.4853,253.5316,106.5375,0,U,59850,999,11377,.2744484E-4,.493E-5,0
STARLINK-31896,2024-097S,2026-05-26T03:36:54.761184,15.27582053,.00016715,43.0000,196.8840,282.2883,77.7781,0,U,59851,999,11376,.64724846E-4,.1519E-4,0
STARLINK-31892,2024-097U,2026-05-26T04:02:48.758496,15.27572367,.00013569,43.0002,197.0179,280.7381,79.3317,0,U,59853,999,11376,.17081701E-4,.208E-5,0
STARLINK-31891,2024-097V,2026-05-25T20:17:35.137248,15.27580554,.00010299,42.9993,198.8950,286.5536,73.5203,0,U,59854,999,11371,-.10564465E-4,-.553E-5,0
STARLINK-31882,2024-097W,2026-05-26T03:34:36.316416,15.27598909,.0000933,42.9975,189.9362,283.9685,76.1062,0,U,59855,999,11384,.13982218E-3,.359E-4,0
STARLINK-31691,2024-097X,2026-05-26T04:28:30.347040,15.27580785,.00013255,43.0013,196.2870,282.2545,77.8159,0,U,59856,999,11377,.5808003E-4,.1336E-4,0
STARLINK-31569,2024-097Y,2026-05-26T03:46:09.509664,15.27559861,.00016288,42.9986,196.9300,294.7523,65.3159,0,U,59857,999,11376,-.23990853E-3,-.6854E-4,0
STARLINK-31654,2024-098A,2026-05-26T04:23:41.436672,15.27572058,.00012989,43.0033,192.9319,284.3017,75.7690,0,U,59858,999,11377,-.62965687E-4,-.1994E-4,0
STARLINK-31442,2024-098B,2026-05-26T04:34:45.132096,15.27582059,.00009777,42.9994,204.2079,280.3772,79.6969,0,U,59859,999,11365,.14553536E-4,.139E-5,0
STARLINK-31651,2024-098C,2026-05-26T05:17:47.991840,15.27581162,.0001872,43.0006,200.1331,276.1658,83.8980,0,U,59860,999,11370,.77529823E-4,.1872E-4,0
STARLINK-31584,2024-098E,2026-05-26T03:28:50.662848,15.27580094,.00015338,43.0034,200.4307,269.9394,90.1281,0,U,59862,999,11369,.4496195E-5,-.139E-5,0
STARLINK-31950,2024-098F,2026-05-26T05:28:54.415776,15.27575407,.00012588,42.9988,200.1877,275.2409,84.8299,0,U,59863,999,11370,.58993812E-4,.1361E-4,0
STARLINK-31931,2024-098G,2026-05-25T20:29:52.210464,15.27577168,.00011557,42.9995,202.5393,274.5204,85.5516,0,U,59864,999,11364,-.11682314E-4,-.583E-5,0
STARLINK-31938,2024-098H,2026-05-26T04:48:11.509344,15.27580848,.00014955,43.0029,199.9718,279.5022,80.5660,0,U,59865,999,11370,.48231643E-4,.1065E-4,0
STARLINK-31941,2024-098J,2026-05-26T02:01:47.118432,15.27574568,.00016235,43.0026,183.1688,281.9046,78.1623,0,U,59866,999,11388,.8609148E-5,-.25E-6,0
STARLINK-31952,2024-098K,2026-05-25T20:09:33.000192,15.27565379,.00008981,42.9990,202.4325,269.3084,90.7665,0,U,59867,999,11364,-.1449626E-4,-.661E-5,0
STARLINK-31921,2024-098L,2026-05-26T07:37:49.342080,15.27578597,.00010631,43.0013,159.2367,269.5464,90.5266,0,U,59868,999,11417,.7262719E-5,-.62E-6,0
STARLINK-31760,2024-098M,2026-05-26T04:15:05.951808,15.27583046,.00012645,42.9989,200.6612,277.8212,82.2496,0,U,59869,999,11369,.54162513E-4,.1229E-4,0
STARLINK-31945,2024-098N,2026-05-26T04:13:44.124960,15.27573793,.00011105,43.0005,196.3301,276.4231,83.6494,0,U,59870,999,11374,.24335515E-4,.408E-5,0
STARLINK-31937,2024-098P,2026-05-26T03:41:20.410080,15.27584890,.00009411,43.0000,193.5646,299.9839,60.0919,0,U,59871,999,11377,.14377023E-4,.134E-5,0
STARLINK-31940,2024-098R,2026-05-26T04:03:19.854720,15.27573838,.00011164,43.0010,192.8176,274.8602,85.2122,0,U,59873,999,11378,.17925113E-4,.231E-5,0
STARLINK-31933,2024-098S,2026-05-26T05:12:15.481440,15.27586954,.00018316,43.0016,200.1050,276.1460,83.9183,0,U,59874,999,11370,.20790169E-3,.5464E-4,0
STARLINK-31936,2024-098T,2026-05-26T02:04:23.319264,15.27575051,.0001229,43.0006,168.5674,275.6485,84.4227,0,U,59875,999,11404,-.12661953E-4,-.61E-5,0
