STARLINK-31857          
1 59843U 24097J   26146.19031821 -.00002336  00000+0 -75385-4 0  9992
2 59843  43.0006 196.3179 0001479 276.9428  83.1255 15.27585076113778
STARLINK-31851          
1 59844U 24097K   26146.20445390  .00000803  00000+0  38695-4 0  9993
2 59844  43.0025 196.4332 0001629 268.7091  91.3575 15.27577297113776
STARLINK-31903          
1 59845U 24097L   26145.62336973 -.00000819  00000+0 -20244-4 0  9995
2 59845  42.9999 192.8794 0001239 273.6137  86.4573 15.27577941113768
STARLINK-31922          
1 59846U 24097M   26146.19417266  .00000133  00000+0  14376-4 0  9990
2 59846  43.0028 196.3488 0001403 275.7741  84.2951 15.27583048113772
STARLINK-31889          
1 59847U 24097N   26146.11865453  .00000294  00000+0  20193-4 0  9990
2 59847  43.0017 197.5050 0001207 272.3286  87.7427 15.27577503113751
STARLINK-31859          
1 59848U 24097P   26146.15288507  .00002083  00000+0  85229-4 0  9993
2 59848  42.9994 189.9732 0001308 284.3383  75.7323 15.27572046113848
STARLINK-31895          
1 59849U 24097Q   26146.20831059 -.00000724  00000+0 -16780-4 0  9994
2 59849  43.0014 196.4592 0001427 265.7329  94.3360 15.27584174113771
STARLINK-31899          
1 59850U 24097R   26146.21216631  .00000493  00000+0  27445-4 0  9991
2 59850  43.0007 196.4853 0001465 253.5316 106.5375 15.27576631113779
STARLINK-31896          
1 59851U 24097S   26146.15063381  .00001519  00000+0  64725-4 0  9999
2 59851  43.0000 196.8840 0001671 282.2883  77.7781 15.27582053113764
STARLINK-31892          
1 59853U 24097U   26146.16861989  .00000208  00000+0  17082-4 0  9990
2 59853  43.0002 197.0179 0001356 280.7381  79.3317 15.27572367113762
STARLINK-31891          
1 59854U 24097V   26145.84554557 -.00000553  00000+0 -10564-4 0  9998
2 59854  42.9993 198.8950 0001029 286.5536  73.5203 15.27580554113711
STARLINK-31882          
1 59855U 24097W   26146.14903144  .00003590  00000+0  13982-3 0  9991
2 59855  42.9975 189.9362 0000933 283.9685  76.1062 15.27598909113848
STARLINK-31691          
1 59856U 24097X   26146.18646235  .00001336  00000+0  58080-4 0  9996
2 59856  43.0013 196.2870 0001325 282.2545  77.8159 15.27580785113772
STARLINK-31569          
1 59857U 24097Y   26146.15705451 -.00006854  00000+0 -23991-3 0  9994
2 59857  42.9986 196.9300 0001628 294.7523  65.3159 15.27559861113767
STARLINK-31654          
1 59858U 24098A   26146.18311848 -.00001994  00000+0 -62966-4 0  9998
2 59858  43.0033 192.9319 0001298 284.3017  75.7690 15.27572058113774
STARLINK-31442          
1 59859U 24098B   26146.19080014  .00000139  00000+0  14554-4 0  9996
2 59859  42.9994 204.2079 0000977 280.3772  79.6969 15.27582059113657
STARLINK-31651          
1 59860U 24098C   26146.22069435  .00001872  00000+0  77530-4 0  9994
2 59860  43.0006 200.1331 0001872 276.1658  83.8980 15.27581162113702
STARLINK-31584          
1 59862U 24098E   26146.14503082 -.00000139  00000+0  44962-5 0  9998
2 59862  43.0034 200.4307 0001533 269.9394  90.1281 15.27580094113698
STARLINK-31950          
1 59863U 24098F   26146.22840759  .00001361  00000+0  58994-4 0  9999
2 59863  42.9988 200.1877 0001258 275.2409  84.8299 15.27575407113708
STARLINK-31931          
1 59864U 24098G   26145.85407651 -.00000583  00000+0 -11682-4 0  9998
2 59864  42.9995 202.5393 0001155 274.5204  85.5516 15.27577168113646
STARLINK-31938          
1 59865U 24098H   26146.20013321  .00001065  00000+0  48232-4 0  9991
2 59865  43.0029 199.9718 0001495 279.5022  80.5660 15.27580848113708
STARLINK-31941          
1 59866U 24098J   26146.08457313 -.00000025  00000+0  86091-5 0  9993
2 59866  43.0026 183.1688 0001623 281.9046  78.1623 15.27574568113886
STARLINK-31952          
1 59867U 24098K   26145.83996528 -.00000661  00000+0 -14496-4 0  9998
2 59867  42.9990 202.4325 0000898 269.3084  90.7665 15.27565379113643
STARLINK-31921          
1 59868U 24098L   26146.31793220 -.00000062  00000+0  72627-5 0  9992
2 59868  43.0013 159.2367 0001063 269.5464  90.5266 15.27578597114176
STARLINK-31760          
1 59869U 24098M   26146.17715222  .00001229  00000+0  54163-4 0  9992
2 59869  42.9989 200.6612 0001264 277.8212  82.2496 15.27583046113691
STARLINK-31945          
1 59870U 24098N   26146.17620515  .00000408  00000+0  24336-4 0  9991
2 59870  43.0005 196.3301 0001110 276.4231  83.6494 15.27573793113743
STARLINK-31937          
1 59871U 24098P   26146.15370845  .00000134  00000+0  14377-4 0  9998
2 59871  43.0000 193.5646 0000941 299.9839  60.0919 15.27584890113779
STARLINK-31940          
1 59873U 24098R   26146.16897980  .00000231  00000+0  17925-4 0  9995
2 59873  43.0010 192.8176 0001116 274.8602  85.2122 15.27573838113783
STARLINK-31933          
1 59874U 24098S   26146.21684585  .00005464  00000+0  20790-3 0  9993
2 59874  43.0016 200.1050 0001831 276.1460  83.9183 15.27586954113702
STARLINK-31936          
1 59875U 24098T   26146.08638101 -.00000610  00000+0 -12662-4 0  9992
2 59875  43.0006 168.5674 0001229 275.6485  84.4227 15.27575051114042
